CCSDS_OMM_VERS = 2.0
CREATION_DATE  = 
ORIGINATOR     = 

OBJECT_NAME    = SHIJIAN-29A (SJ-29A)
OBJECT_ID      = 2025-315A
CENTER_NAME    = EARTH
REF_FRAME      = TEME
TIME_SYSTEM    = UTC
MEAN_ELEMENT_THEORY = SGP/SGP4

EPOCH          = 2026-01-18T16:02:16.516608
MEAN_MOTION    = 1.00271429
ECCENTRICITY   = .0001536
INCLINATION    = 3.0186
RA_OF_ASC_NODE = 99.0857
ARG_OF_PERICENTER = 304.9469
MEAN_ANOMALY   = 27.6333

EPHEMERIS_TYPE = 0
CLASSIFICATION_TYPE = U
NORAD_CAT_ID   = 67302
ELEMENT_SET_NO = 999
REV_AT_EPOCH   = 11
BSTAR          = 0
MEAN_MOTION_DOT = -.53E-6
MEAN_MOTION_DDOT = 0

CCSDS_OMM_VERS = 2.0
CREATION_DATE  = 
ORIGINATOR     = 

OBJECT_NAME    = CZ-7A R/B
OBJECT_ID      = 2025-315B
CENTER_NAME    = EARTH
REF_FRAME      = TEME
TIME_SYSTEM    = UTC
MEAN_ELEMENT_THEORY = SGP/SGP4

EPOCH          = 2026-01-18T07:23:01.368672
MEAN_MOTION    = 2.44145271
ECCENTRICITY   = .71897346
INCLINATION    = 19.5745
RA_OF_ASC_NODE = 92.8709
ARG_OF_PERICENTER = 193.0437
MEAN_ANOMALY   = 126.8747

EPHEMERIS_TYPE = 0
CLASSIFICATION_TYPE = U
NORAD_CAT_ID   = 67303
ELEMENT_SET_NO = 999
REV_AT_EPOCH   = 45
BSTAR          = .31288697E-2
MEAN_MOTION_DOT = .112821E-2
MEAN_MOTION_DDOT = .1307945E-5

CCSDS_OMM_VERS = 2.0
CREATION_DATE  = 
ORIGINATOR     = 

OBJECT_NAME    = CSG-3
OBJECT_ID      = 2026-001A
CENTER_NAME    = EARTH
REF_FRAME      = TEME
TIME_SYSTEM    = UTC
MEAN_ELEMENT_THEORY = SGP/SGP4

EPOCH          = 2026-01-18T14:22:13.836000
MEAN_MOTION    = 14.82508937
ECCENTRICITY   = .00016254
INCLINATION    = 97.8446
RA_OF_ASC_NODE = 204.4212
ARG_OF_PERICENTER = 89.0601
MEAN_ANOMALY   = 271.0798

EPHEMERIS_TYPE = 0
CLASSIFICATION_TYPE = U
NORAD_CAT_ID   = 67304
ELEMENT_SET_NO = 999
REV_AT_EPOCH   = 230
BSTAR          = .59709159E-4
MEAN_MOTION_DOT = .428E-5
MEAN_MOTION_DDOT = 0

CCSDS_OMM_VERS = 2.0
CREATION_DATE  = 
ORIGINATOR     = 

OBJECT_NAME    = STARLINK-36490
OBJECT_ID      = 2026-002A
CENTER_NAME    = EARTH
REF_FRAME      = TEME
TIME_SYSTEM    = UTC
MEAN_ELEMENT_THEORY = SGP/SGP4

EPOCH          = 2026-01-18T14:00:01.999872
MEAN_MOTION    = 15.78497421
ECCENTRICITY   = .00018808
INCLINATION    = 42.9965
RA_OF_ASC_NODE = 253.8368
ARG_OF_PERICENTER = 256.7329
MEAN_ANOMALY   = 37.8213

EPHEMERIS_TYPE = 0
CLASSIFICATION_TYPE = U
NORAD_CAT_ID   = 67305
ELEMENT_SET_NO = 999
REV_AT_EPOCH   = 342
BSTAR          = -.86040185E-2
MEAN_MOTION_DOT = -.1373317E-1
MEAN_MOTION_DDOT = 0

CCSDS_OMM_VERS = 2.0
CREATION_DATE  = 
ORIGINATOR     = 

OBJECT_NAME    = STARLINK-36488
OBJECT_ID      = 2026-002B
CENTER_NAME    = EARTH
REF_FRAME      = TEME
TIME_SYSTEM    = UTC
MEAN_ELEMENT_THEORY = SGP/SGP4

EPOCH          = 2026-01-18T14:00:01.999872
MEAN_MOTION    = 15.78476688
ECCENTRICITY   = .00017565
INCLINATION    = 42.9965
RA_OF_ASC_NODE = 253.8317
ARG_OF_PERICENTER = 266.1726
MEAN_ANOMALY   = 30.4241

EPHEMERIS_TYPE = 0
CLASSIFICATION_TYPE = U
NORAD_CAT_ID   = 67306
ELEMENT_SET_NO = 999
REV_AT_EPOCH   = 336
BSTAR          = -.86715675E-2
MEAN_MOTION_DOT = -.1381674E-1
MEAN_MOTION_DDOT = 0

CCSDS_OMM_VERS = 2.0
CREATION_DATE  = 
ORIGINATOR     = 

OBJECT_NAME    = STARLINK-36481
OBJECT_ID      = 2026-002C
CENTER_NAME    = EARTH
REF_FRAME      = TEME
TIME_SYSTEM    = UTC
MEAN_ELEMENT_THEORY = SGP/SGP4

EPOCH          = 2026-01-18T14:00:01.999872
MEAN_MOTION    = 15.78345096
ECCENTRICITY   = .0001694
INCLINATION    = 42.9969
RA_OF_ASC_NODE = 253.8206
ARG_OF_PERICENTER = 260.2047
MEAN_ANOMALY   = 40.8457

EPHEMERIS_TYPE = 0
CLASSIFICATION_TYPE = U
NORAD_CAT_ID   = 67307
ELEMENT_SET_NO = 999
REV_AT_EPOCH   = 336
BSTAR          = -.888239E-2
MEAN_MOTION_DOT = -.1403953E-1
MEAN_MOTION_DDOT = 0

CCSDS_OMM_VERS = 2.0
CREATION_DATE  = 
ORIGINATOR     = 

OBJECT_NAME    = STARLINK-36449
OBJECT_ID      = 2026-002D
CENTER_NAME    = EARTH
REF_FRAME      = TEME
TIME_SYSTEM    = UTC
MEAN_ELEMENT_THEORY = SGP/SGP4

EPOCH          = 2026-01-18T14:00:01.999872
MEAN_MOTION    = 15.78292446
ECCENTRICITY   = .00017544
INCLINATION    = 42.9967
RA_OF_ASC_NODE = 253.8149
ARG_OF_PERICENTER = 260.3703
MEAN_ANOMALY   = 42.8413

EPHEMERIS_TYPE = 0
CLASSIFICATION_TYPE = U
NORAD_CAT_ID   = 67308
ELEMENT_SET_NO = 999
REV_AT_EPOCH   = 342
BSTAR          = -.89710259E-2
MEAN_MOTION_DOT = -.1413408E-1
MEAN_MOTION_DDOT = 0

CCSDS_OMM_VERS = 2.0
CREATION_DATE  = 
ORIGINATOR     = 

OBJECT_NAME    = STARLINK-36482
OBJECT_ID      = 2026-002E
CENTER_NAME    = EARTH
REF_FRAME      = TEME
TIME_SYSTEM    = UTC
MEAN_ELEMENT_THEORY = SGP/SGP4

EPOCH          = 2026-01-18T14:00:01.999872
MEAN_MOTION    = 15.77962819
ECCENTRICITY   = .0001765
INCLINATION    = 42.9974
RA_OF_ASC_NODE = 253.7884
ARG_OF_PERICENTER = 267.5269
MEAN_ANOMALY   = 46.5962

EPHEMERIS_TYPE = 0
CLASSIFICATION_TYPE = U
NORAD_CAT_ID   = 67309
ELEMENT_SET_NO = 999
REV_AT_EPOCH   = 336
BSTAR          = -.93801115E-2
MEAN_MOTION_DOT = -.1450945E-1
MEAN_MOTION_DDOT = 0

CCSDS_OMM_VERS = 2.0
CREATION_DATE  = 
ORIGINATOR     = 

OBJECT_NAME    = STARLINK-36491
OBJECT_ID      = 2026-002F
CENTER_NAME    = EARTH
REF_FRAME      = TEME
TIME_SYSTEM    = UTC
MEAN_ELEMENT_THEORY = SGP/SGP4

EPOCH          = 2026-01-18T14:00:01.999872
MEAN_MOTION    = 15.78361742
ECCENTRICITY   = .00018548
INCLINATION    = 42.9972
RA_OF_ASC_NODE = 253.8261
ARG_OF_PERICENTER = 263.9023
MEAN_ANOMALY   = 35.1343

EPHEMERIS_TYPE = 0
CLASSIFICATION_TYPE = U
NORAD_CAT_ID   = 67310
ELEMENT_SET_NO = 999
REV_AT_EPOCH   = 336
BSTAR          = -.87967513E-2
MEAN_MOTION_DOT = -.1392956E-1
MEAN_MOTION_DDOT = 0

CCSDS_OMM_VERS = 2.0
CREATION_DATE  = 
ORIGINATOR     = 

OBJECT_NAME    = STARLINK-36495
OBJECT_ID      = 2026-002G
CENTER_NAME    = EARTH
REF_FRAME      = TEME
TIME_SYSTEM    = UTC
MEAN_ELEMENT_THEORY = SGP/SGP4

EPOCH          = 2026-01-18T14:00:01.999872
MEAN_MOTION    = 15.78209156
ECCENTRICITY   = .00017078
INCLINATION    = 42.9972
RA_OF_ASC_NODE = 253.8094
ARG_OF_PERICENTER = 268.9730
MEAN_ANOMALY   = 36.5114

EPHEMERIS_TYPE = 0
CLASSIFICATION_TYPE = U
NORAD_CAT_ID   = 67311
ELEMENT_SET_NO = 999
REV_AT_EPOCH   = 352
BSTAR          = -.90731159E-2
MEAN_MOTION_DOT = -.1422838E-1
MEAN_MOTION_DDOT = 0

CCSDS_OMM_VERS = 2.0
CREATION_DATE  = 
ORIGINATOR     = 

OBJECT_NAME    = STARLINK-36485
OBJECT_ID      = 2026-002H
CENTER_NAME    = EARTH
REF_FRAME      = TEME
TIME_SYSTEM    = UTC
MEAN_ELEMENT_THEORY = SGP/SGP4

EPOCH          = 2026-01-18T14:00:01.999872
MEAN_MOTION    = 15.78100053
ECCENTRICITY   = .00016909
INCLINATION    = 42.9973
RA_OF_ASC_NODE = 253.8031
ARG_OF_PERICENTER = 263.0382
MEAN_ANOMALY   = 44.7853

EPHEMERIS_TYPE = 0
CLASSIFICATION_TYPE = U
NORAD_CAT_ID   = 67312
ELEMENT_SET_NO = 999
REV_AT_EPOCH   = 336
BSTAR          = -.91627133E-2
MEAN_MOTION_DOT = -.142897E-1
MEAN_MOTION_DDOT = 0

CCSDS_OMM_VERS = 2.0
CREATION_DATE  = 
ORIGINATOR     = 

OBJECT_NAME    = STARLINK-36445
OBJECT_ID      = 2026-002J
CENTER_NAME    = EARTH
REF_FRAME      = TEME
TIME_SYSTEM    = UTC
MEAN_ELEMENT_THEORY = SGP/SGP4

EPOCH          = 2026-01-18T14:00:01.999872
MEAN_MOTION    = 15.78102127
ECCENTRICITY   = .00018358
INCLINATION    = 42.9970
RA_OF_ASC_NODE = 253.7982
ARG_OF_PERICENTER = 264.3261
MEAN_ANOMALY   = 45.4131

EPHEMERIS_TYPE = 0
CLASSIFICATION_TYPE = U
NORAD_CAT_ID   = 67313
ELEMENT_SET_NO = 999
REV_AT_EPOCH   = 352
BSTAR          = -.91576793E-2
MEAN_MOTION_DOT = -.1428489E-1
MEAN_MOTION_DDOT = 0

