SHIJIAN-29A (SJ-29A)    
1 67302U 25315A   26018.66824672 -.00000053  00000+0  00000+0 0  9999
2 67302   3.0186  99.0857 0001536 304.9469  27.6333  1.00271429   118
CZ-7A R/B               
1 67303U 25315B   26018.30765473  .00112821  13079-5  31289-2 0  9992
2 67303  19.5745  92.8709 7189734 193.0437 126.8747  2.44145271   457
CSG-3                   
1 67304U 26001A   26018.59877125  .00000428  00000+0  59709-4 0  9997
2 67304  97.8446 204.4212 0001625  89.0601 271.0798 14.82508937  2309
STARLINK-36490          
1 67305U 26002A   26018.58335648 -.01373317  00000+0 -86040-2 0  9996
2 67305  42.9965 253.8368 0001880 256.7329  37.8213 15.78497421  3425
STARLINK-36488          
1 67306U 26002B   26018.58335648 -.01381674  00000+0 -86716-2 0  9992
2 67306  42.9965 253.8317 0001756 266.1726  30.4241 15.78476688  3363
STARLINK-36481          
1 67307U 26002C   26018.58335648 -.01403953  00000+0 -88824-2 0  9990
2 67307  42.9969 253.8206 0001694 260.2047  40.8457 15.78345096  3369
STARLINK-36449          
1 67308U 26002D   26018.58335648 -.01413408  00000+0 -89710-2 0  9992
2 67308  42.9967 253.8149 0001754 260.3703  42.8413 15.78292446  3422
STARLINK-36482          
1 67309U 26002E   26018.58335648 -.01450945  00000+0 -93801-2 0  9996
2 67309  42.9974 253.7884 0001765 267.5269  46.5962 15.77962819  3364
STARLINK-36491          
1 67310U 26002F   26018.58335648 -.01392956  00000+0 -87968-2 0  9992
2 67310  42.9972 253.8261 0001854 263.9023  35.1343 15.78361742  3367
STARLINK-36495          
1 67311U 26002G   26018.58335648 -.01422838  00000+0 -90731-2 0  9998
2 67311  42.9972 253.8094 0001707 268.9730  36.5114 15.78209156  3528
STARLINK-36485          
1 67312U 26002H   26018.58335648 -.01428970  00000+0 -91627-2 0  9997
2 67312  42.9973 253.8031 0001690 263.0382  44.7853 15.78100053  3360
STARLINK-36445          
1 67313U 26002J   26018.58335648 -.01428489  00000+0 -91577-2 0  9997
2 67313  42.9970 253.7982 0001835 264.3261  45.4131 15.78102127  3522
